[{"OBJECT_NAME":"STARLINK-3874","OBJECT_ID":"2022-045AL","EPOCH":"2024-10-27T08:04:20.652960","MEAN_MOTION":15.0886385,"ECCENTRICITY":0.0001131,"INCLINATION":53.2155,"RA_OF_ASC_NODE":266.3148,"ARG_OF_PERICENTER":103.7502,"MEAN_ANOMALY":256.3616,"EPHEMERIS_TYPE":0,"CLASSIFICATION_TYPE":"U","NORAD_CAT_ID":52365,"ELEMENT_SET_NO":999,"REV_AT_EPOCH":14068,"BSTAR":0.0007989,"MEAN_MOTION_DOT":0.00012458,"MEAN_MOTION_DDOT":0},{"OBJECT_NAME":"STARLINK-3808","OBJECT_ID":"2022-045AM","EPOCH":"2024-10-27T04:27:04.115520","MEAN_MOTION":15.08850502,"ECCENTRICITY":0.0001547,"INCLINATION":53.2154,"RA_OF_ASC_NODE":266.9919,"ARG_OF_PERICENTER":98.821,"MEAN_ANOMALY":261.2957,"EPHEMERIS_TYPE":0,"CLASSIFICATION_TYPE":"U","NORAD_CAT_ID":52366,"ELEMENT_SET_NO":999,"REV_AT_EPOCH":14066,"BSTAR":0.00040812,"MEAN_MOTION_DOT":6.215e-5,"MEAN_MOTION_DDOT":0},{"OBJECT_NAME":"STARLINK-3817","OBJECT_ID":"2022-045AN","EPOCH":"2024-10-27T04:37:40.143936","MEAN_MOTION":15.08863322,"ECCENTRICITY":0.0001587,"INCLINATION":53.2158,"RA_OF_ASC_NODE":266.957,"ARG_OF_PERICENTER":94.4794,"MEAN_ANOMALY":265.638,"EPHEMERIS_TYPE":0,"CLASSIFICATION_TYPE":"U","NORAD_CAT_ID":52367,"ELEMENT_SET_NO":999,"REV_AT_EPOCH":14066,"BSTAR":0.00085522,"MEAN_MOTION_DOT":0.00013358,"MEAN_MOTION_DDOT":0},{"OBJECT_NAME":"STARLINK-3834","OBJECT_ID":"2022-045AP","EPOCH":"2024-10-27T15:18:52.506144","MEAN_MOTION":15.08841764,"ECCENTRICITY":0.0001967,"INCLINATION":53.2166,"RA_OF_ASC_NODE":264.9569,"ARG_OF_PERICENTER":89.3762,"MEAN_ANOMALY":270.7455,"EPHEMERIS_TYPE":0,"CLASSIFICATION_TYPE":"U","NORAD_CAT_ID":52368,"ELEMENT_SET_NO":999,"REV_AT_EPOCH":14072,"BSTAR":-1.111e-5,"MEAN_MOTION_DOT":-4.65e-6,"MEAN_MOTION_DDOT":0},{"OBJECT_NAME":"STARLINK-3841","OBJECT_ID":"2022-045AQ","EPOCH":"2024-10-27T04:32:21.792768","MEAN_MOTION":15.0885137,"ECCENTRICITY":0.0001669,"INCLINATION":53.2168,"RA_OF_ASC_NODE":266.9738,"ARG_OF_PERICENTER":93.8361,"MEAN_ANOMALY":266.2822,"EPHEMERIS_TYPE":0,"CLASSIFICATION_TYPE":"U","NORAD_CAT_ID":52369,"ELEMENT_SET_NO":999,"REV_AT_EPOCH":14066,"BSTAR":0.00016751,"MEAN_MOTION_DOT":2.38e-5,"MEAN_MOTION_DDOT":0},{"OBJECT_NAME":"STARLINK-3827","OBJECT_ID":"2022-045AR","EPOCH":"2024-10-27T07:33:55.204992","MEAN_MOTION":15.08853124,"ECCENTRICITY":0.0001497,"INCLINATION":53.2173,"RA_OF_ASC_NODE":266.4162,"ARG_OF_PERICENTER":99.0095,"MEAN_ANOMALY":261.1067,"EPHEMERIS_TYPE":0,"CLASSIFICATION_TYPE":"U","NORAD_CAT_ID":52370,"ELEMENT_SET_NO":999,"REV_AT_EPOCH":14068,"BSTAR":4.5531e-5,"MEAN_MOTION_DOT":4.37e-6,"MEAN_MOTION_DDOT":0},{"OBJECT_NAME":"STARLINK-3798","OBJECT_ID":"2022-045AS","EPOCH":"2024-10-27T15:25:33.055680","MEAN_MOTION":15.08852835,"ECCENTRICITY":0.0001574,"INCLINATION":53.2163,"RA_OF_ASC_NODE":264.9481,"ARG_OF_PERICENTER":97.0736,"MEAN_ANOMALY":263.0435,"EPHEMERIS_TYPE":0,"CLASSIFICATION_TYPE":"U","NORAD_CAT_ID":52371,"ELEMENT_SET_NO":999,"REV_AT_EPOCH":14072,"BSTAR":0.00028097,"MEAN_MOTION_DOT":4.188e-5,"MEAN_MOTION_DDOT":0},{"OBJECT_NAME":"STARLINK-3796","OBJECT_ID":"2022-045AT","EPOCH":"2024-10-27T15:13:33.825792","MEAN_MOTION":15.08868364,"ECCENTRICITY":0.0001437,"INCLINATION":53.2147,"RA_OF_ASC_NODE":264.9754,"ARG_OF_PERICENTER":87.2444,"MEAN_ANOMALY":272.8712,"EPHEMERIS_TYPE":0,"CLASSIFICATION_TYPE":"U","NORAD_CAT_ID":52372,"ELEMENT_SET_NO":999,"REV_AT_EPOCH":14072,"BSTAR":0.00083297,"MEAN_MOTION_DOT":0.00013004,"MEAN_MOTION_DDOT":0},{"OBJECT_NAME":"STARLINK-3550","OBJECT_ID":"2022-045AU","EPOCH":"2024-10-27T14:57:39.367584","MEAN_MOTION":15.08860764,"ECCENTRICITY":0.0001215,"INCLINATION":53.217,"RA_OF_ASC_NODE":265.0222,"ARG_OF_PERICENTER":91.556,"MEAN_ANOMALY":268.5572,"EPHEMERIS_TYPE":0,"CLASSIFICATION_TYPE":"U","NORAD_CAT_ID":52373,"ELEMENT_SET_NO":999,"REV_AT_EPOCH":14073,"BSTAR":0.0001454,"MEAN_MOTION_DOT":2.028e-5,"MEAN_MOTION_DDOT":0},{"OBJECT_NAME":"STARLINK-3762","OBJECT_ID":"2022-045AV","EPOCH":"2024-10-27T21:24:31.144896","MEAN_MOTION":15.08844026,"ECCENTRICITY":0.0001715,"INCLINATION":53.2167,"RA_OF_ASC_NODE":263.8212,"ARG_OF_PERICENTER":81.6662,"MEAN_ANOMALY":278.4525,"EPHEMERIS_TYPE":0,"CLASSIFICATION_TYPE":"U","NORAD_CAT_ID":52374,"ELEMENT_SET_NO":999,"REV_AT_EPOCH":14077,"BSTAR":0.00019826,"MEAN_MOTION_DOT":2.869e-5,"MEAN_MOTION_DDOT":0},{"OBJECT_NAME":"STARLINK-3785","OBJECT_ID":"2022-045AW","EPOCH":"2024-10-27T21:29:49.205760","MEAN_MOTION":15.08832805,"ECCENTRICITY":0.0001878,"INCLINATION":53.2164,"RA_OF_ASC_NODE":263.8045,"ARG_OF_PERICENTER":88.1738,"MEAN_ANOMALY":271.9469,"EPHEMERIS_TYPE":0,"CLASSIFICATION_TYPE":"U","NORAD_CAT_ID":52375,"ELEMENT_SET_NO":999,"REV_AT_EPOCH":14077,"BSTAR":-0.00019375,"MEAN_MOTION_DOT":-3.37e-5,"MEAN_MOTION_DDOT":0},{"OBJECT_NAME":"STARLINK-3767","OBJECT_ID":"2022-045AX","EPOCH":"2024-10-27T21:13:55.249536","MEAN_MOTION":15.08841494,"ECCENTRICITY":0.0002299,"INCLINATION":53.2175,"RA_OF_ASC_NODE":263.8505,"ARG_OF_PERICENTER":80.0318,"MEAN_ANOMALY":280.0933,"EPHEMERIS_TYPE":0,"CLASSIFICATION_TYPE":"U","NORAD_CAT_ID":52376,"ELEMENT_SET_NO":999,"REV_AT_EPOCH":14077,"BSTAR":0.00013017,"MEAN_MOTION_DOT":1.784e-5,"MEAN_MOTION_DDOT":0},{"OBJECT_NAME":"STARLINK-3805","OBJECT_ID":"2022-045AY","EPOCH":"2024-10-27T07:27:17.010720","MEAN_MOTION":15.08847213,"ECCENTRICITY":0.000147,"INCLINATION":53.2163,"RA_OF_ASC_NODE":266.6496,"ARG_OF_PERICENTER":84.7464,"MEAN_ANOMALY":275.3696,"EPHEMERIS_TYPE":0,"CLASSIFICATION_TYPE":"U","NORAD_CAT_ID":52377,"ELEMENT_SET_NO":999,"REV_AT_EPOCH":14067,"BSTAR":5.2981e-5,"MEAN_MOTION_DOT":5.55e-6,"MEAN_MOTION_DDOT":0},{"OBJECT_NAME":"STARLINK-3806","OBJECT_ID":"2022-045AZ","EPOCH":"2024-10-27T21:03:19.208160","MEAN_MOTION":15.08841436,"ECCENTRICITY":0.0001804,"INCLINATION":53.2176,"RA_OF_ASC_NODE":263.8862,"ARG_OF_PERICENTER":90.3987,"MEAN_ANOMALY":269.7211,"EPHEMERIS_TYPE":0,"CLASSIFICATION_TYPE":"U","NORAD_CAT_ID":52378,"ELEMENT_SET_NO":999,"REV_AT_EPOCH":14077,"BSTAR":0.00017366,"MEAN_MOTION_DOT":2.477e-5,"MEAN_MOTION_DDOT":0},{"OBJECT_NAME":"STARLINK-3800","OBJECT_ID":"2022-045BA","EPOCH":"2024-10-27T14:47:04.402752","MEAN_MOTION":15.08845517,"ECCENTRICITY":0.0001143,"INCLINATION":53.2161,"RA_OF_ASC_NODE":265.0535,"ARG_OF_PERICENTER":93.5651,"MEAN_ANOMALY":266.5472,"EPHEMERIS_TYPE":0,"CLASSIFICATION_TYPE":"U","NORAD_CAT_ID":52379,"ELEMENT_SET_NO":999,"REV_AT_EPOCH":14073,"BSTAR":0.00010509,"MEAN_MOTION_DOT":1.385e-5,"MEAN_MOTION_DDOT":0},{"OBJECT_NAME":"STARLINK-3793","OBJECT_ID":"2022-045BB","EPOCH":"2024-10-27T14:16:36.469920","MEAN_MOTION":15.08843946,"ECCENTRICITY":0.0001521,"INCLINATION":53.217,"RA_OF_ASC_NODE":255.1871,"ARG_OF_PERICENTER":102.4794,"MEAN_ANOMALY":257.6369,"EPHEMERIS_TYPE":0,"CLASSIFICATION_TYPE":"U","NORAD_CAT_ID":52380,"ELEMENT_SET_NO":999,"REV_AT_EPOCH":14086,"BSTAR":0.00012104,"MEAN_MOTION_DOT":1.639e-5,"MEAN_MOTION_DDOT":0},{"OBJECT_NAME":"STARLINK-3803","OBJECT_ID":"2022-045BC","EPOCH":"2024-10-27T14:36:28.668096","MEAN_MOTION":15.08842178,"ECCENTRICITY":0.0001509,"INCLINATION":53.2167,"RA_OF_ASC_NODE":265.0871,"ARG_OF_PERICENTER":89.1323,"MEAN_ANOMALY":270.9842,"EPHEMERIS_TYPE":0,"CLASSIFICATION_TYPE":"U","NORAD_CAT_ID":52381,"ELEMENT_SET_NO":999,"REV_AT_EPOCH":14073,"BSTAR":9.719e-5,"MEAN_MOTION_DOT":1.259e-5,"MEAN_MOTION_DDOT":0},{"OBJECT_NAME":"STARLINK-3799","OBJECT_ID":"2022-045BD","EPOCH":"2024-10-27T14:31:09.732000","MEAN_MOTION":15.08860467,"ECCENTRICITY":0.0001401,"INCLINATION":53.2156,"RA_OF_ASC_NODE":265.1171,"ARG_OF_PERICENTER":107.2647,"MEAN_ANOMALY":252.8499,"EPHEMERIS_TYPE":0,"CLASSIFICATION_TYPE":"U","NORAD_CAT_ID":52382,"ELEMENT_SET_NO":999,"REV_AT_EPOCH":14073,"BSTAR":0.00027629,"MEAN_MOTION_DOT":4.114e-5,"MEAN_MOTION_DDOT":0},{"OBJECT_NAME":"STARLINK-3811","OBJECT_ID":"2022-045BE","EPOCH":"2024-10-27T21:25:50.561184","MEAN_MOTION":15.08843948,"ECCENTRICITY":0.0001483,"INCLINATION":53.2171,"RA_OF_ASC_NODE":253.8455,"ARG_OF_PERICENTER":100.0081,"MEAN_ANOMALY":260.1078,"EPHEMERIS_TYPE":0,"CLASSIFICATION_TYPE":"U","NORAD_CAT_ID":52383,"ELEMENT_SET_NO":999,"REV_AT_EPOCH":14091,"BSTAR":0.00017578,"MEAN_MOTION_DOT":2.511e-5,"MEAN_MOTION_DDOT":0},{"OBJECT_NAME":"STARLINK-3870","OBJECT_ID":"2022-049A","EPOCH":"2024-10-27T20:26:13.392960","MEAN_MOTION":15.08844548,"ECCENTRICITY":0.0001463,"INCLINATION":53.2164,"RA_OF_ASC_NODE":144.001,"ARG_OF_PERICENTER":91.8068,"MEAN_ANOMALY":268.3092,"EPHEMERIS_TYPE":0,"CLASSIFICATION_TYPE":"U","NORAD_CAT_ID":52451,"ELEMENT_SET_NO":999,"REV_AT_EPOCH":13711,"BSTAR":7.5742e-5,"MEAN_MOTION_DOT":9.18e-6,"MEAN_MOTION_DDOT":0},{"OBJECT_NAME":"STARLINK-3909","OBJECT_ID":"2022-049B","EPOCH":"2024-10-27T12:45:10.404288","MEAN_MOTION":15.08856815,"ECCENTRICITY":0.0001483,"INCLINATION":53.2153,"RA_OF_ASC_NODE":145.3162,"ARG_OF_PERICENTER":98.778,"MEAN_ANOMALY":261.338,"EPHEMERIS_TYPE":0,"CLASSIFICATION_TYPE":"U","NORAD_CAT_ID":52452,"ELEMENT_SET_NO":999,"REV_AT_EPOCH":13690,"BSTAR":6.9111e-5,"MEAN_MOTION_DOT":8.13e-6,"MEAN_MOTION_DDOT":0},{"OBJECT_NAME":"STARLINK-3872","OBJECT_ID":"2022-049C","EPOCH":"2024-10-27T20:15:37.919232","MEAN_MOTION":15.08847607,"ECCENTRICITY":0.0001621,"INCLINATION":53.2159,"RA_OF_ASC_NODE":144.0348,"ARG_OF_PERICENTER":94.8556,"MEAN_ANOMALY":265.2621,"EPHEMERIS_TYPE":0,"CLASSIFICATION_TYPE":"U","NORAD_CAT_ID":52453,"ELEMENT_SET_NO":999,"REV_AT_EPOCH":13711,"BSTAR":0.00021004,"MEAN_MOTION_DOT":3.057e-5,"MEAN_MOTION_DDOT":0},{"OBJECT_NAME":"STARLINK-3888","OBJECT_ID":"2022-049D","EPOCH":"2024-10-26T23:40:54.929568","MEAN_MOTION":15.08847221,"ECCENTRICITY":0.0001548,"INCLINATION":53.2164,"RA_OF_ASC_NODE":147.8836,"ARG_OF_PERICENTER":95.8906,"MEAN_ANOMALY":264.2262,"EPHEMERIS_TYPE":0,"CLASSIFICATION_TYPE":"U","NORAD_CAT_ID":52454,"ELEMENT_SET_NO":999,"REV_AT_EPOCH":13682,"BSTAR":8.6534e-5,"MEAN_MOTION_DOT":1.09e-5,"MEAN_MOTION_DDOT":0}]